[
  {
    "COMMENT": "GENERATED VIA SPACETRACK.ORG API",
    "ORIGINATOR": "18 SPCS",
    "NORAD_CAT_ID": "46469",
    "OBJECT_NAME": "HAIYANG 2C",
    "OBJECT_TYPE": "PAYLOAD",
    "CLASSIFICATION_TYPE": "U",
    "INTLDES": "20066A",
    "EPOCH": "2023-05-22 10:33:50",
    "EPOCH_MICROSECONDS": "93568",
    "MEAN_MOTION": "13.83373427",
    "ECCENTRICITY": "0.0008695",
    "INCLINATION": "65.9944",
    "RA_OF_ASC_NODE": "128.1864",
    "ARG_OF_PERICENTER": "301.894",
    "MEAN_ANOMALY": "58.1282",
    "EPHEMERIS_TYPE": "0",
    "ELEMENT_SET_NO": "999",
    "REV_AT_EPOCH": "13462",
    "BSTAR": "0.000046969",
    "MEAN_MOTION_DOT": "-0.0000003",
    "MEAN_MOTION_DDOT": "0",
    "FILE": "3914488",
    "TLE_LINE0": "0 HAIYANG 2C",
    "TLE_LINE1": "1 46469U 20066A   23142.44016312 -.00000030  00000-0  46969-4 0  9998",
    "TLE_LINE2": "2 46469  65.9944 128.1864 0008695 301.8940  58.1282 13.83373427134624",
    "OBJECT_ID": "2020-066A",
    "OBJECT_NUMBER": "46469",
    "SEMIMAJOR_AXIS": "7330.083",
    "PERIOD": "104.093",
    "APOGEE": "958.321",
    "PERIGEE": "945.574",
    "DECAYED": "0"
  },
  {
    "COMMENT": "GENERATED VIA SPACETRACK.ORG API",
    "ORIGINATOR": "18 SPCS",
    "NORAD_CAT_ID": "46469",
    "OBJECT_NAME": "HAIYANG 2C",
    "OBJECT_TYPE": "PAYLOAD",
    "CLASSIFICATION_TYPE": "U",
    "INTLDES": "20066A",
    "EPOCH": "2023-05-22 14:02:02",
    "EPOCH_MICROSECONDS": "633280",
    "MEAN_MOTION": "13.83373412",
    "ECCENTRICITY": "0.0008705",
    "INCLINATION": "65.9944",
    "RA_OF_ASC_NODE": "127.8264",
    "ARG_OF_PERICENTER": "301.9052",
    "MEAN_ANOMALY": "58.1169",
    "EPHEMERIS_TYPE": "0",
    "ELEMENT_SET_NO": "999",
    "REV_AT_EPOCH": "13435",
    "BSTAR": "0.000041318",
    "MEAN_MOTION_DOT": "-0.00000036",
    "MEAN_MOTION_DDOT": "0",
    "FILE": "3914693",
    "TLE_LINE0": "0 HAIYANG 2C",
    "TLE_LINE1": "1 46469U 20066A   23142.58475270 -.00000036  00000-0  41318-4 0  9994",
    "TLE_LINE2": "2 46469  65.9944 127.8264 0008705 301.9052  58.1169 13.83373412134359",
    "OBJECT_ID": "2020-066A",
    "OBJECT_NUMBER": "46469",
    "SEMIMAJOR_AXIS": "7330.083",
    "PERIOD": "104.093",
    "APOGEE": "958.329",
    "PERIGEE": "945.567",
    "DECAYED": "0"
  },
  {
    "COMMENT": "GENERATED VIA SPACETRACK.ORG API",
    "ORIGINATOR": "18 SPCS",
    "NORAD_CAT_ID": "46469",
    "OBJECT_NAME": "HAIYANG 2C",
    "OBJECT_TYPE": "PAYLOAD",
    "CLASSIFICATION_TYPE": "U",
    "INTLDES": "20066A",
    "EPOCH": "2023-05-22 17:30:15",
    "EPOCH_MICROSECONDS": "172128",
    "MEAN_MOTION": "13.83373411",
    "ECCENTRICITY": "0.0008714",
    "INCLINATION": "65.9944",
    "RA_OF_ASC_NODE": "127.4664",
    "ARG_OF_PERICENTER": "301.8711",
    "MEAN_ANOMALY": "58.1509",
    "EPHEMERIS_TYPE": "0",
    "ELEMENT_SET_NO": "999",
    "REV_AT_EPOCH": "13466",
    "BSTAR": "0.000038065",
    "MEAN_MOTION_DOT": "-0.00000039",
    "MEAN_MOTION_DDOT": "0",
    "FILE": "3914772",
    "TLE_LINE0": "0 HAIYANG 2C",
    "TLE_LINE1": "1 46469U 20066A   23142.72934227 -.00000039  00000-0  38065-4 0  9990",
    "TLE_LINE2": "2 46469  65.9944 127.4664 0008714 301.8711  58.1509 13.83373411134661",
    "OBJECT_ID": "2020-066A",
    "OBJECT_NUMBER": "46469",
    "SEMIMAJOR_AXIS": "7330.083",
    "PERIOD": "104.093",
    "APOGEE": "958.335",
    "PERIGEE": "945.561",
    "DECAYED": "0"
  },
  {
    "COMMENT": "GENERATED VIA SPACETRACK.ORG API",
    "ORIGINATOR": "18 SPCS",
    "NORAD_CAT_ID": "46469",
    "OBJECT_NAME": "HAIYANG 2C",
    "OBJECT_TYPE": "PAYLOAD",
    "CLASSIFICATION_TYPE": "U",
    "INTLDES": "20066A",
    "EPOCH": "2023-05-22 22:42:33",
    "EPOCH_MICROSECONDS": "979968",
    "MEAN_MOTION": "13.83373426",
    "ECCENTRICITY": "0.0008716",
    "INCLINATION": "65.9944",
    "RA_OF_ASC_NODE": "126.9263",
    "ARG_OF_PERICENTER": "301.8487",
    "MEAN_ANOMALY": "58.1732",
    "EPHEMERIS_TYPE": "0",
    "ELEMENT_SET_NO": "999",
    "REV_AT_EPOCH": "13440",
    "BSTAR": "0.000035215",
    "MEAN_MOTION_DOT": "-0.00000042",
    "MEAN_MOTION_DDOT": "0",
    "FILE": "3914964",
    "TLE_LINE0": "0 HAIYANG 2C",
    "TLE_LINE1": "1 46469U 20066A   23142.94622662 -.00000042  00000-0  35215-4 0  9999",
    "TLE_LINE2": "2 46469  65.9944 126.9263 0008716 301.8487  58.1732 13.83373426134408",
    "OBJECT_ID": "2020-066A",
    "OBJECT_NUMBER": "46469",
    "SEMIMAJOR_AXIS": "7330.083",
    "PERIOD": "104.093",
    "APOGEE": "958.337",
    "PERIGEE": "945.559",
    "DECAYED": "0"
  },
  {
    "COMMENT": "GENERATED VIA SPACETRACK.ORG API",
    "ORIGINATOR": "18 SPCS",
    "NORAD_CAT_ID": "46469",
    "OBJECT_NAME": "HAIYANG 2C",
    "OBJECT_TYPE": "PAYLOAD",
    "CLASSIFICATION_TYPE": "U",
    "INTLDES": "20066A",
    "EPOCH": "2023-05-23 02:10:46",
    "EPOCH_MICROSECONDS": "517088",
    "MEAN_MOTION": "13.83373428",
    "ECCENTRICITY": "0.0008721",
    "INCLINATION": "65.9944",
    "RA_OF_ASC_NODE": "126.5663",
    "ARG_OF_PERICENTER": "301.8415",
    "MEAN_ANOMALY": "58.1803",
    "EPHEMERIS_TYPE": "0",
    "ELEMENT_SET_NO": "999",
    "REV_AT_EPOCH": "13471",
    "BSTAR": "0.000033133",
    "MEAN_MOTION_DOT": "-0.00000045",
    "MEAN_MOTION_DDOT": "0",
    "FILE": "3915045",
    "TLE_LINE0": "0 HAIYANG 2C",
    "TLE_LINE1": "1 46469U 20066A   23143.09081617 -.00000045  00000-0  33133-4 0  9995",
    "TLE_LINE2": "2 46469  65.9944 126.5663 0008721 301.8415  58.1803 13.83373428134710",
    "OBJECT_ID": "2020-066A",
    "OBJECT_NUMBER": "46469",
    "SEMIMAJOR_AXIS": "7330.083",
    "PERIOD": "104.093",
    "APOGEE": "958.340",
    "PERIGEE": "945.555",
    "DECAYED": "0"
  },
  {
    "COMMENT": "GENERATED VIA SPACETRACK.ORG API",
    "ORIGINATOR": "18 SPCS",
    "NORAD_CAT_ID": "46469",
    "OBJECT_NAME": "HAIYANG 2C",
    "OBJECT_TYPE": "PAYLOAD",
    "CLASSIFICATION_TYPE": "U",
    "INTLDES": "20066A",
    "EPOCH": "2023-05-23 12:35:24",
    "EPOCH_MICROSECONDS": "129312",
    "MEAN_MOTION": "13.83373529",
    "ECCENTRICITY": "0.0008746",
    "INCLINATION": "65.9944",
    "RA_OF_ASC_NODE": "125.4863",
    "ARG_OF_PERICENTER": "301.8483",
    "MEAN_ANOMALY": "58.1733",
    "EPHEMERIS_TYPE": "0",
    "ELEMENT_SET_NO": "999",
    "REV_AT_EPOCH": "13477",
    "BSTAR": "0.000047753",
    "MEAN_MOTION_DOT": "-0.00000029",
    "MEAN_MOTION_DDOT": "0",
    "FILE": "3915336",
    "TLE_LINE0": "0 HAIYANG 2C",
    "TLE_LINE1": "1 46469U 20066A   23143.52458483 -.00000029  00000-0  47753-4 0  9997",
    "TLE_LINE2": "2 46469  65.9944 125.4863 0008746 301.8483  58.1733 13.83373529134772",
    "OBJECT_ID": "2020-066A",
    "OBJECT_NUMBER": "46469",
    "SEMIMAJOR_AXIS": "7330.083",
    "PERIOD": "104.093",
    "APOGEE": "958.358",
    "PERIGEE": "945.537",
    "DECAYED": "0"
  },
  {
    "COMMENT": "GENERATED VIA SPACETRACK.ORG API",
    "ORIGINATOR": "18 SPCS",
    "NORAD_CAT_ID": "46469",
    "OBJECT_NAME": "HAIYANG 2C",
    "OBJECT_TYPE": "PAYLOAD",
    "CLASSIFICATION_TYPE": "U",
    "INTLDES": "20066A",
    "EPOCH": "2023-05-23 17:47:42",
    "EPOCH_MICROSECONDS": "934560",
    "MEAN_MOTION": "13.83373565",
    "ECCENTRICITY": "0.0008753",
    "INCLINATION": "65.9945",
    "RA_OF_ASC_NODE": "124.9463",
    "ARG_OF_PERICENTER": "301.8265",
    "MEAN_ANOMALY": "58.1951",
    "EPHEMERIS_TYPE": "0",
    "ELEMENT_SET_NO": "999",
    "REV_AT_EPOCH": "13480",
    "BSTAR": "0.000051737",
    "MEAN_MOTION_DOT": "-0.00000024",
    "MEAN_MOTION_DDOT": "0",
    "FILE": "3915623",
    "TLE_LINE0": "0 HAIYANG 2C",
    "TLE_LINE1": "1 46469U 20066A   23143.74146915 -.00000024  00000-0  51737-4 0  9997",
    "TLE_LINE2": "2 46469  65.9945 124.9463 0008753 301.8265  58.1951 13.83373565134805",
    "OBJECT_ID": "2020-066A",
    "OBJECT_NUMBER": "46469",
    "SEMIMAJOR_AXIS": "7330.082",
    "PERIOD": "104.093",
    "APOGEE": "958.363",
    "PERIGEE": "945.531",
    "DECAYED": "0"
  },
  {
    "COMMENT": "GENERATED VIA SPACETRACK.ORG API",
    "ORIGINATOR": "18 SPCS",
    "NORAD_CAT_ID": "46469",
    "OBJECT_NAME": "HAIYANG 2C",
    "OBJECT_TYPE": "PAYLOAD",
    "CLASSIFICATION_TYPE": "U",
    "INTLDES": "20066A",
    "EPOCH": "2023-05-23 23:00:01",
    "EPOCH_MICROSECONDS": "740672",
    "MEAN_MOTION": "13.83373581",
    "ECCENTRICITY": "0.0008756",
    "INCLINATION": "65.9945",
    "RA_OF_ASC_NODE": "124.4063",
    "ARG_OF_PERICENTER": "301.8084",
    "MEAN_ANOMALY": "58.2131",
    "EPHEMERIS_TYPE": "0",
    "ELEMENT_SET_NO": "999",
    "REV_AT_EPOCH": "13454",
    "BSTAR": "0.000047395",
    "MEAN_MOTION_DOT": "-0.00000029",
    "MEAN_MOTION_DDOT": "0",
    "FILE": "3915766",
    "TLE_LINE0": "0 HAIYANG 2C",
    "TLE_LINE1": "1 46469U 20066A   23143.95835348 -.00000029  00000-0  47395-4 0  9995",
    "TLE_LINE2": "2 46469  65.9945 124.4063 0008756 301.8084  58.2131 13.83373581134548",
    "OBJECT_ID": "2020-066A",
    "OBJECT_NUMBER": "46469",
    "SEMIMAJOR_AXIS": "7330.082",
    "PERIOD": "104.093",
    "APOGEE": "958.366",
    "PERIGEE": "945.529",
    "DECAYED": "0"
  }
]